NORAD_CAT_ID,OBJECT_NAME,OBJECT_TYPE,EPOCH,MEAN_MOTION,ECCENTRICITY,INCLINATION,RA_OF_ASC_NODE,ARG_OF_PERICENTER,MEAN_ANOMALY,BSTAR,MEAN_MOTION_DOT,MEAN_MOTION_DDOT,TLE_LINE0,TLE_LINE1,TLE_LINE2,SEMIMAJOR_AXIS,PERIOD,APOGEE,PERIGEE,DECAYED
55749.0,STARLINK-5560,PAYLOAD,2024-06-01 21:00:29,14.98330615,0.0002763,70.0008,72.7791,268.6732,91.411,2.9037e-05,2.54e-06,0.0,0 STARLINK-5560,1 55749U 23028J   24153.87534326  .00000254  00000-0  29037-4 0  9994,2 55749  70.0008  72.7791 0002763 268.6732  91.4110 14.98330615 69306,6950.191,96.107,573.976,570.136,0.0
55749.0,STARLINK-5560,PAYLOAD,2024-06-02 11:25:42,14.98330288,0.0002608,70.0011,71.2639,267.7675,92.3186,-4.6824e-05,-6.52e-06,0.0,0 STARLINK-5560,1 55749U 23028J   24154.47618454 -.00000652  00000-0 -46824-4 0  9993,2 55749  70.0011  71.2639 0002608 267.7675  92.3186 14.98330288 69397,6950.192,96.107,573.87,570.244,0.0
55749.0,STARLINK-5560,PAYLOAD,2024-06-03 03:27:02,14.98330774,0.0002589,70.0013,69.5793,269.4958,90.5905,0.00011545,1.285e-05,0.0,0 STARLINK-5560,1 55749U 23028J   24155.14378111  .00001285  00000-0  11545-3 0  9993,2 55749  70.0013  69.5793 0002589 269.4958  90.5905 14.98330774 69491,6950.19,96.107,573.855,570.256,0.0
55749.0,STARLINK-5560,PAYLOAD,2024-06-03 11:27:42,14.98358836,0.0002702,70.0016,68.7366,278.2283,81.857,-0.00042134,-5.12e-05,0.0,0 STARLINK-5560,1 55749U 23028J   24155.47757164 -.00005120  00000-0 -42134-3 0  9990,2 55749  70.0016  68.7366 0002702 278.2283  81.8570 14.98358836 69543,6950.104,96.105,573.847,570.091,0.0
55749.0,STARLINK-5560,PAYLOAD,2024-06-03 17:52:15,14.98332198,0.0002811,70.0008,68.0645,270.5501,89.5336,8.9186e-05,9.71e-06,0.0,0 STARLINK-5560,1 55749U 23028J   24155.74462012  .00000971  00000-0  89186-4 0  9991,2 55749  70.0008  68.0645 0002811 270.5501  89.5336 14.98332198 69588,6950.186,96.107,574.005,570.097,0.0
55749.0,STARLINK-5560,PAYLOAD,2024-06-04 11:29:43,14.98332884,0.0002807,70.0006,66.2129,264.3023,95.7816,3.6983e-05,3.48e-06,0.0,0 STARLINK-5560,1 55749U 23028J   24156.47897898  .00000348  00000-0  36983-4 0  9991,2 55749  70.0006  66.2129 0002807 264.3023  95.7816 14.98332884 69694,6950.184,96.107,574.0,570.098,0.0
55749.0,STARLINK-5560,PAYLOAD,2024-06-05 03:31:04,14.98335324,0.0002832,70.0007,64.5304,268.944,91.1395,7.2176e-05,7.68e-06,0.0,0 STARLINK-5560,1 55749U 23028J   24157.14657685  .00000768  00000-0  72176-4 0  9994,2 55749  70.0007  64.5304 0002832 268.9440  91.1395 14.98335324 69797,6950.176,96.107,574.01,570.073,0.0
55749.0,STARLINK-5560,PAYLOAD,2024-06-05 11:31:44,14.98331491,0.0003193,70.001,63.6859,267.5154,92.5639,4.9337e-06,-3.4e-07,0.0,0 STARLINK-5560,1 55749U 23028J   24157.48037880 -.00000034  00000-0  49337-5 0  9991,2 55749  70.0010  63.6859 0003193 267.5154  92.5639 14.98331491 69847,6950.188,96.107,574.272,569.834,0.0
55749.0,STARLINK-5560,PAYLOAD,2024-06-06 03:33:05,14.98329494,0.0002731,70.0012,62.0045,266.8514,93.2333,-1.1839e-05,-2.34e-06,0.0,0 STARLINK-5560,1 55749U 23028J   24158.14798266 -.00000234  00000-0 -11839-4 0  9995,2 55749  70.0012  62.0045 0002731 266.8514  93.2333 14.98329494 69948,6950.194,96.107,573.958,570.161,0.0
55749.0,STARLINK-5560,PAYLOAD,2024-06-06 11:33:45,14.98339923,0.0002751,70.0013,61.1628,277.2558,82.8288,-0.00015258,-1.913e-05,0.0,0 STARLINK-5560,1 55749U 23028J   24158.48177938 -.00001913  00000-0 -15258-3 0  9992,2 55749  70.0013  61.1628 0002751 277.2558  82.8288 14.98339923 69998,6950.162,96.106,573.939,570.115,0.0
55749.0,STARLINK-5560,PAYLOAD,2024-06-07 16:24:10,14.98330865,0.0002827,70.0021,58.1332,269.5756,90.508,0.00014027,1.581e-05,0.0,0 STARLINK-5560,1 55749U 23028J   24159.68345885  .00001581  00000-0  14027-3 0  9995,2 55749  70.0021  58.1332 0002827 269.5756  90.5080 14.98330865 70177,6950.19,96.107,574.02,570.09,0.0
55749.0,STARLINK-5560,PAYLOAD,2024-06-07 22:48:43,14.98334701,0.0002412,70.0011,57.4585,265.9045,94.1838,9.0374e-05,9.86e-06,0.0,0 STARLINK-5560,1 55749U 23028J   24159.95049800  .00000986  00000-0  90374-4 0  9991,2 55749  70.0011  57.4585 0002412 265.9045  94.1838 14.98334701 70218,6950.178,96.107,573.72,570.367,0.0
55749.0,STARLINK-5560,PAYLOAD,2024-06-08 10:01:40,14.98316183,0.0002289,70.0027,56.2811,273.819,86.2708,0.00034585,4.035e-05,0.0,0 STARLINK-5560,1 55749U 23028J   24160.41782609  .00004035  00000-0  34585-3 0  9995,2 55749  70.0027  56.2811 0002289 273.8190  86.2708 14.98316183 70284,6950.236,96.108,573.692,570.51,0.0
55749.0,STARLINK-5560,PAYLOAD,2024-06-08 22:50:44,14.9832924,0.0002708,70.0021,54.9352,269.3909,90.694,1.5102e-06,-7.5e-07,0.0,0 STARLINK-5560,1 55749U 23028J   24160.95190237 -.00000075  00000-0  15102-5 0  9991,2 55749  70.0021  54.9352 0002708 269.3909  90.6940 14.98329240 70361,6950.195,96.107,573.942,570.178,0.0
55749.0,STARLINK-5560,PAYLOAD,2024-06-09 02:03:00,14.98332172,0.0002596,70.0014,54.5968,263.4551,96.6312,4.9514e-05,4.98e-06,0.0,0 STARLINK-5560,1 55749U 23028J   24161.08541918  .00000498  00000-0  49514-4 0  9993,2 55749  70.0014  54.5968 0002596 263.4551  96.6312 14.98332172 70384,6950.186,96.107,573.855,570.247,0.0
55749.0,STARLINK-5560,PAYLOAD,2024-06-09 22:52:45,14.98330917,0.0002468,70.0017,52.4086,264.6072,95.4805,1.3958e-05,7.4e-07,0.0,0 STARLINK-5560,1 55749U 23028J   24161.95330180  .00000074  00000-0  13958-4 0  9999,2 55749  70.0017  52.4086 0002468 264.6072  95.4805 14.98330917 70518,6950.19,96.107,573.77,570.34,0.0
55749.0,STARLINK-5560,PAYLOAD,2024-06-10 02:05:01,14.98329789,0.0002641,70.0012,52.0723,267.2989,92.7868,1.9562e-05,1.4e-06,0.0,0 STARLINK-5560,1 55749U 23028J   24162.08682246  .00000140  00000-0  19562-4 0  9998,2 55749  70.0012  52.0723 0002641 267.2989  92.7868 14.98329789 70532,6950.194,96.107,573.894,570.223,0.0
55749.0,STARLINK-5560,PAYLOAD,2024-06-10 10:05:41,14.98334837,0.0002839,70.001,51.231,275.2347,84.8488,-2.4615e-05,-3.87e-06,0.0,0 STARLINK-5560,1 55749U 23028J   24162.42062018 -.00000387  00000-0 -24615-4 0  9995,2 55749  70.0010  51.2310 0002839 275.2347  84.8488 14.98334837 70584,6950.178,96.107,574.016,570.07,0.0
55749.0,STARLINK-5560,PAYLOAD,2024-06-10 22:54:46,14.98325899,0.0002747,70.0005,49.8842,267.1017,92.9827,0.00019888,2.281e-05,0.0,0 STARLINK-5560,1 55749U 23028J   24162.95470061  .00002281  00000-0  19888-3 0  9992,2 55749  70.0005  49.8842 0002747 267.1017  92.9827 14.98325899 70667,6950.206,96.107,573.98,570.161,0.0
55749.0,STARLINK-5560,PAYLOAD,2024-06-11 02:07:02,14.98328753,0.0002807,70.0004,49.5486,268.9226,91.1612,0.00020558,2.361e-05,0.0,0 STARLINK-5560,1 55749U 23028J   24163.08821918  .00002361  00000-0  20558-3 0  9993,2 55749  70.0004  49.5486 0002807 268.9226  91.1612 14.98328753 70682,6950.197,96.107,574.013,570.111,0.0
55749.0,STARLINK-5560,PAYLOAD,2024-06-11 10:07:42,14.98326449,0.000279,70.0004,48.7072,270.8181,89.2658,0.00021853,2.515e-05,0.0,0 STARLINK-5560,1 55749U 23028J   24163.42202124  .00002515  00000-0  21853-3 0  9993,2 55749  70.0004  48.7072 0002790 270.8181  89.2658 14.98326449 70731,6950.204,96.107,574.008,570.13,0.0
55749.0,STARLINK-5560,PAYLOAD,2024-06-12 02:09:02,14.98339239,0.0002904,70.0004,47.0235,269.5338,90.5488,0.00016369,1.861e-05,0.0,0 STARLINK-5560,1 55749U 23028J   24164.08961219  .00001861  00000-0  16369-3 0  9992,2 55749  70.0004  47.0235 0002904 269.5338  90.5488 14.98339239 70838,6950.164,96.106,574.048,570.011,0.0
55749.0,STARLINK-5560,PAYLOAD,2024-06-12 10:09:43,14.98332646,0.0002831,70.0005,46.1813,270.8547,89.2287,3.3677e-05,3.09e-06,0.0,0 STARLINK-5560,1 55749U 23028J   24164.42341842  .00000309  00000-0  33677-4 0  9992,2 55749  70.0005  46.1813 0002831 270.8547  89.2287 14.98332646 70889,6950.185,96.107,574.017,570.082,0.0
55749.0,STARLINK-5560,PAYLOAD,2024-06-12 21:22:40,14.98325889,0.0002863,70.0005,45.0032,270.3001,89.783,8.0541e-06,3e-08,0.0,0 STARLINK-5560,1 55749U 23028J   24164.89074321  .00000003  00000-0  80541-5 0  9992,2 55749  70.0005  45.0032 0002863 270.3001  89.7830 14.98325889 70953,6950.206,96.107,574.06,570.081,0.0
55749.0,STARLINK-5560,PAYLOAD,2024-06-13 02:11:04,14.9832863,0.0002792,70.0005,44.4983,269.9932,90.0907,-1.22e-05,-2.39e-06,0.0,0 STARLINK-5560,1 55749U 23028J   24165.09102202 -.00000239  00000-0 -12200-4 0  9994,2 55749  70.0005  44.4983 0002792 269.9932  90.0907 14.98328630 70989,6950.197,96.107,574.003,570.122,0.0
55749.0,STARLINK-5560,PAYLOAD,2024-06-13 19:48:32,14.98334551,0.0002748,70.0004,42.6467,270.3471,89.7373,1.6323e-05,1.02e-06,0.0,0 STARLINK-5560,1 55749U 23028J   24165.82537665  .00000102  00000-0  16323-4 0  9997,2 55749  70.0004  42.6467 0002748 270.3471  89.7373 14.98334551 71094,6950.179,96.107,573.954,570.134,0.0
55749.0,STARLINK-5560,PAYLOAD,2024-06-14 15:02:09,14.98328435,0.0002793,70.0006,40.6271,273.5649,86.5191,9.6598e-05,1.06e-05,0.0,0 STARLINK-5560,1 55749U 23028J   24166.62649660  .00001060  00000-0  96598-4 0  9991,2 55749  70.0006  40.6271 0002793 273.5649  86.5191 14.98328435 71210,6950.198,96.107,574.004,570.122,0.0
55749.0,STARLINK-5560,PAYLOAD,2024-06-14 21:26:41,14.98331104,0.0002839,70.0005,39.9539,271.7559,88.3275,0.00010848,1.202e-05,0.0,0 STARLINK-5560,1 55749U 23028J   24166.89353454  .00001202  00000-0  10848-3 0  9994,2 55749  70.0005  39.9539 0002839 271.7559  88.3275 14.98331104 71252,6950.189,96.107,574.028,570.081,0.0
55749.0,STARLINK-5560,PAYLOAD,2024-06-15 08:39:38,14.98330556,0.0002865,70.0006,38.7764,270.2196,89.8635,4.4087e-05,4.33e-06,0.0,0 STARLINK-5560,1 55749U 23028J   24167.36085661  .00000433  00000-0  44087-4 0  9997,2 55749  70.0006  38.7764 0002865 270.2196  89.8635 14.98330556 71324,6950.191,96.107,574.047,570.065,0.0
55749.0,STARLINK-5560,PAYLOAD,2024-06-15 21:28:42,14.98332914,0.0002898,70.0007,37.4299,270.3988,89.6838,-1.8531e-07,-9.5e-07,0.0,0 STARLINK-5560,1 55749U 23028J   24167.89493585 -.00000095  00000-0 -18531-6 0  9996,2 55749  70.0007  37.4299 0002898 270.3988  89.6838 14.98332914 71402,6950.184,96.107,574.063,570.035,0.0
